GSAT0207 (GALILEO 15)   
1 41859U 16069A   25102.19299137  .00000054  00000+0  00000+0 0  9997
2 41859  55.2403 113.0234 0005835 303.9617  56.0260  1.70474442 52056
GSAT0212 (GALILEO 16)   
1 41860U 16069B   25103.22008598  .00000054  00000+0  00000+0 0  9993
2 41860  55.2386 112.9908 0004289 324.7312  35.2781  1.70474650 52327
GSAT0213 (GALILEO 17)   
1 41861U 16069C   25103.00158572  .00000054  00000+0  00000+0 0  9998
2 41861  55.2407 113.0040 0005882 289.2359  70.7394  1.70474899 52180
GSAT0214 (GALILEO 18)   
1 41862U 16069D   25102.56056548  .00000054  00000+0  00000+0 0  9999
2 41862  55.2390 113.0094 0004910 292.5176  67.4717  1.70474699 52300
GSAT0215 (GALILEO 19)   
1 43055U 17079A   25103.63730147 -.00000013  00000+0  00000+0 0  9996
2 43055  55.2182 233.3250 0000602 254.8797 105.0686  1.70474781 45666
GSAT0216 (GALILEO 20)   
1 43056U 17079B   25102.16901030 -.00000022  00000+0  00000+0 0  9995
2 43056  55.2198 233.3652 0001920 284.6953  75.2304  1.70474921 45659
GSAT0217 (GALILEO 21)   
1 43057U 17079C   25102.97619371 -.00000017  00000+0  00000+0 0  9993
2 43057  55.2173 233.3413 0001635 320.6894  39.2497  1.70474834 45652
GSAT0221 (GALILEO 25)   
1 43564U 18060A   25101.92514376 -.00000097  00000+0  00000+0 0  9998
2 43564  57.2788 353.4194 0004322 312.3499  47.6570  1.70475697 41811
GSAT0222 (GALILEO 26)   
1 43565U 18060B   25102.73069188 -.00000094  00000+0  00000+0 0  9992
2 43565  57.2822 353.4003 0003041 287.1883  72.8240  1.70475517 41874
GSAT0219 (GALILEO 23)   
1 43566U 18060C   25103.53873410 -.00000091  00000+0  00000+0 0  9990
2 43566  57.2814 353.3802 0003950 323.9976  36.0231  1.70475693 41869
GSAT0220 (GALILEO 24)   
1 43567U 18060D   25101.99976666 -.00000097  00000+0  00000+0 0  9992
2 43567  57.2812 353.4217 0004224 315.8988  44.1112  1.70475846 41821
GSAT0223 (GALILEO 27)   
1 49809U 21116A   25100.97683609 -.00000100  00000+0  00000+0 0  9997
2 49809  57.2717 353.3417 0000499 304.7592 238.0522  1.70475807 20811
