[
    {
        "OBJECT_NAME": "GSAT0207 (GALILEO 15)",
        "OBJECT_ID": "2016-069A",
        "EPOCH": "2025-04-12T04:37:54.454368",
        "MEAN_MOTION": 1.70474442,
        "ECCENTRICITY": 0.0005835,
        "INCLINATION": 55.2403,
        "RA_OF_ASC_NODE": 113.0234,
        "ARG_OF_PERICENTER": 303.9617,
        "MEAN_ANOMALY": 56.026,
        "EPHEMERIS_TYPE": 0,
        "CLASSIFICATION_TYPE": "U",
        "NORAD_CAT_ID": 41859,
        "ELEMENT_SET_NO": 999,
        "REV_AT_EPOCH": 5205,
        "BSTAR": 0,
        "MEAN_MOTION_DOT": 5.4e-07,
        "MEAN_MOTION_DDOT": 0
    },
    {
        "OBJECT_NAME": "GSAT0212 (GALILEO 16)",
        "OBJECT_ID": "2016-069B",
        "EPOCH": "2025-04-13T05:16:55.428672",
        "MEAN_MOTION": 1.7047465,
        "ECCENTRICITY": 0.0004289,
        "INCLINATION": 55.2386,
        "RA_OF_ASC_NODE": 112.9908,
        "ARG_OF_PERICENTER": 324.7312,
        "MEAN_ANOMALY": 35.2781,
        "EPHEMERIS_TYPE": 0,
        "CLASSIFICATION_TYPE": "U",
        "NORAD_CAT_ID": 41860,
        "ELEMENT_SET_NO": 999,
        "REV_AT_EPOCH": 5232,
        "BSTAR": 0,
        "MEAN_MOTION_DOT": 5.4e-07,
        "MEAN_MOTION_DDOT": 0
    },
    {
        "OBJECT_NAME": "GSAT0213 (GALILEO 17)",
        "OBJECT_ID": "2016-069C",
        "EPOCH": "2025-04-13T00:02:17.006208",
        "MEAN_MOTION": 1.70474899,
        "ECCENTRICITY": 0.0005882,
        "INCLINATION": 55.2407,
        "RA_OF_ASC_NODE": 113.004,
        "ARG_OF_PERICENTER": 289.2359,
        "MEAN_ANOMALY": 70.7394,
        "EPHEMERIS_TYPE": 0,
        "CLASSIFICATION_TYPE": "U",
        "NORAD_CAT_ID": 41861,
        "ELEMENT_SET_NO": 999,
        "REV_AT_EPOCH": 5218,
        "BSTAR": 0,
        "MEAN_MOTION_DOT": 5.4e-07,
        "MEAN_MOTION_DDOT": 0
    },
    {
        "OBJECT_NAME": "GSAT0214 (GALILEO 18)",
        "OBJECT_ID": "2016-069D",
        "EPOCH": "2025-04-12T13:27:12.857472",
        "MEAN_MOTION": 1.70474699,
        "ECCENTRICITY": 0.000491,
        "INCLINATION": 55.239,
        "RA_OF_ASC_NODE": 113.0094,
        "ARG_OF_PERICENTER": 292.5176,
        "MEAN_ANOMALY": 67.4717,
        "EPHEMERIS_TYPE": 0,
        "CLASSIFICATION_TYPE": "U",
        "NORAD_CAT_ID": 41862,
        "ELEMENT_SET_NO": 999,
        "REV_AT_EPOCH": 5230,
        "BSTAR": 0,
        "MEAN_MOTION_DOT": 5.4e-07,
        "MEAN_MOTION_DDOT": 0
    },
    {
        "OBJECT_NAME": "GSAT0215 (GALILEO 19)",
        "OBJECT_ID": "2017-079A",
        "EPOCH": "2025-04-13T15:17:42.847008",
        "MEAN_MOTION": 1.70474781,
        "ECCENTRICITY": 6.02e-05,
        "INCLINATION": 55.2182,
        "RA_OF_ASC_NODE": 233.325,
        "ARG_OF_PERICENTER": 254.8797,
        "MEAN_ANOMALY": 105.0686,
        "EPHEMERIS_TYPE": 0,
        "CLASSIFICATION_TYPE": "U",
        "NORAD_CAT_ID": 43055,
        "ELEMENT_SET_NO": 999,
        "REV_AT_EPOCH": 4566,
        "BSTAR": 0,
        "MEAN_MOTION_DOT": -1.3e-07,
        "MEAN_MOTION_DDOT": 0
    },
    {
        "OBJECT_NAME": "GSAT0216 (GALILEO 20)",
        "OBJECT_ID": "2017-079B",
        "EPOCH": "2025-04-12T04:03:22.489920",
        "MEAN_MOTION": 1.70474921,
        "ECCENTRICITY": 0.000192,
        "INCLINATION": 55.2198,
        "RA_OF_ASC_NODE": 233.3652,
        "ARG_OF_PERICENTER": 284.6953,
        "MEAN_ANOMALY": 75.2304,
        "EPHEMERIS_TYPE": 0,
        "CLASSIFICATION_TYPE": "U",
        "NORAD_CAT_ID": 43056,
        "ELEMENT_SET_NO": 999,
        "REV_AT_EPOCH": 4565,
        "BSTAR": 0,
        "MEAN_MOTION_DOT": -2.2e-07,
        "MEAN_MOTION_DDOT": 0
    },
    {
        "OBJECT_NAME": "GSAT0217 (GALILEO 21)",
        "OBJECT_ID": "2017-079C",
        "EPOCH": "2025-04-12T23:25:43.136544",
        "MEAN_MOTION": 1.70474834,
        "ECCENTRICITY": 0.0001635,
        "INCLINATION": 55.2173,
        "RA_OF_ASC_NODE": 233.3413,
        "ARG_OF_PERICENTER": 320.6894,
        "MEAN_ANOMALY": 39.2497,
        "EPHEMERIS_TYPE": 0,
        "CLASSIFICATION_TYPE": "U",
        "NORAD_CAT_ID": 43057,
        "ELEMENT_SET_NO": 999,
        "REV_AT_EPOCH": 4565,
        "BSTAR": 0,
        "MEAN_MOTION_DOT": -1.7e-07,
        "MEAN_MOTION_DDOT": 0
    },
    {
        "OBJECT_NAME": "GSAT0221 (GALILEO 25)",
        "OBJECT_ID": "2018-060A",
        "EPOCH": "2025-04-11T22:12:12.420864",
        "MEAN_MOTION": 1.70475697,
        "ECCENTRICITY": 0.0004322,
        "INCLINATION": 57.2788,
        "RA_OF_ASC_NODE": 353.4194,
        "ARG_OF_PERICENTER": 312.3499,
        "MEAN_ANOMALY": 47.657,
        "EPHEMERIS_TYPE": 0,
        "CLASSIFICATION_TYPE": "U",
        "NORAD_CAT_ID": 43564,
        "ELEMENT_SET_NO": 999,
        "REV_AT_EPOCH": 4181,
        "BSTAR": 0,
        "MEAN_MOTION_DOT": -9.7e-07,
        "MEAN_MOTION_DDOT": 0
    },
    {
        "OBJECT_NAME": "GSAT0222 (GALILEO 26)",
        "OBJECT_ID": "2018-060B",
        "EPOCH": "2025-04-12T17:32:11.778432",
        "MEAN_MOTION": 1.70475517,
        "ECCENTRICITY": 0.0003041,
        "INCLINATION": 57.2822,
        "RA_OF_ASC_NODE": 353.4003,
        "ARG_OF_PERICENTER": 287.1883,
        "MEAN_ANOMALY": 72.824,
        "EPHEMERIS_TYPE": 0,
        "CLASSIFICATION_TYPE": "U",
        "NORAD_CAT_ID": 43565,
        "ELEMENT_SET_NO": 999,
        "REV_AT_EPOCH": 4187,
        "BSTAR": 0,
        "MEAN_MOTION_DOT": -9.4e-07,
        "MEAN_MOTION_DDOT": 0
    },
    {
        "OBJECT_NAME": "GSAT0219 (GALILEO 23)",
        "OBJECT_ID": "2018-060C",
        "EPOCH": "2025-04-13T12:55:46.626240",
        "MEAN_MOTION": 1.70475693,
        "ECCENTRICITY": 0.000395,
        "INCLINATION": 57.2814,
        "RA_OF_ASC_NODE": 353.3802,
        "ARG_OF_PERICENTER": 323.9976,
        "MEAN_ANOMALY": 36.0231,
        "EPHEMERIS_TYPE": 0,
        "CLASSIFICATION_TYPE": "U",
        "NORAD_CAT_ID": 43566,
        "ELEMENT_SET_NO": 999,
        "REV_AT_EPOCH": 4186,
        "BSTAR": 0,
        "MEAN_MOTION_DOT": -9.1e-07,
        "MEAN_MOTION_DDOT": 0
    },
    {
        "OBJECT_NAME": "GSAT0220 (GALILEO 24)",
        "OBJECT_ID": "2018-060D",
        "EPOCH": "2025-04-11T23:59:39.839424",
        "MEAN_MOTION": 1.70475846,
        "ECCENTRICITY": 0.0004224,
        "INCLINATION": 57.2812,
        "RA_OF_ASC_NODE": 353.4217,
        "ARG_OF_PERICENTER": 315.8988,
        "MEAN_ANOMALY": 44.1112,
        "EPHEMERIS_TYPE": 0,
        "CLASSIFICATION_TYPE": "U",
        "NORAD_CAT_ID": 43567,
        "ELEMENT_SET_NO": 999,
        "REV_AT_EPOCH": 4182,
        "BSTAR": 0,
        "MEAN_MOTION_DOT": -9.7e-07,
        "MEAN_MOTION_DDOT": 0
    },
    {
        "OBJECT_NAME": "GSAT0223 (GALILEO 27)",
        "OBJECT_ID": "2021-116A",
        "EPOCH": "2025-04-10T23:26:38.638176",
        "MEAN_MOTION": 1.70475807,
        "ECCENTRICITY": 4.99e-05,
        "INCLINATION": 57.2717,
        "RA_OF_ASC_NODE": 353.3417,
        "ARG_OF_PERICENTER": 304.7592,
        "MEAN_ANOMALY": 238.0522,
        "EPHEMERIS_TYPE": 0,
        "CLASSIFICATION_TYPE": "U",
        "NORAD_CAT_ID": 49809,
        "ELEMENT_SET_NO": 999,
        "REV_AT_EPOCH": 2081,
        "BSTAR": 0,
        "MEAN_MOTION_DOT": -1e-06,
        "MEAN_MOTION_DDOT": 0
    }
]